{
  "norad_id": 45245,
  "name": "JCSAT-17",
  "history": [
    {
      "epoch": "2026-03-28T16:29:51.665856Z",
      "apogee_km": 35805.177248601394,
      "perigee_km": 35768.00482436443,
      "latitude_deg": -2.9653445851306386,
      "longitude_deg": 135.85871249411275,
      "height_km": 35802.916676357265,
      "semi_major_axis_km": 42164.72803648291,
      "eccentricity": 0.0004408,
      "inclination_deg": 5.3948,
      "raan_deg": 356.0826,
      "arg_perigee_deg": 4.798,
      "mean_anomaly_deg": 208.6519,
      "mean_motion_rev_day": 1.00271799
    },
    {
      "epoch": "2026-03-28T23:59:20.065056Z",
      "apogee_km": 35805.20135859015,
      "perigee_km": 35768.03734234285,
      "latitude_deg": -2.995500524442616,
      "longitude_deg": 136.08081485983368,
      "height_km": 35772.10210810011,
      "semi_major_axis_km": 42164.7563504665,
      "eccentricity": 0.0004407,
      "inclination_deg": 5.3948,
      "raan_deg": 356.0859,
      "arg_perigee_deg": 5.3771,
      "mean_anomaly_deg": 320.7453,
      "mean_motion_rev_day": 1.00271698
    },
    {
      "epoch": "2026-03-29T23:56:53.357856Z",
      "apogee_km": 35805.33724519491,
      "perigee_km": 35768.04667046461,
      "latitude_deg": -2.9654304920125685,
      "longitude_deg": 136.07806032881504,
      "height_km": 35772.41219865062,
      "semi_major_axis_km": 42164.82895782976,
      "eccentricity": 0.0004422,
      "inclination_deg": 5.3947,
      "raan_deg": 356.0966,
      "arg_perigee_deg": 7.15,
      "mean_anomaly_deg": 319.3333,
      "mean_motion_rev_day": 1.00271439
    },
    {
      "epoch": "2026-03-30T05:08:51.463392Z",
      "apogee_km": 35805.40649660135,
      "perigee_km": 35768.01218097732,
      "latitude_deg": 3.7869001610229094,
      "longitude_deg": 135.89911084917736,
      "height_km": 35770.838034897,
      "semi_major_axis_km": 42164.846338789335,
      "eccentricity": 0.00044343,
      "inclination_deg": 5.3947,
      "raan_deg": 356.099,
      "arg_perigee_deg": 7.5274,
      "mean_anomaly_deg": 37.1583,
      "mean_motion_rev_day": 1.00271377
    },
    {
      "epoch": "2026-03-30T07:43:51.548160Z",
      "apogee_km": 35805.44077795186,
      "perigee_km": 35767.98911315677,
      "latitude_deg": 5.346732242117835,
      "longitude_deg": 136.01717627478575,
      "height_km": 35781.104720513635,
      "semi_major_axis_km": 42164.851945554314,
      "eccentricity": 0.00044411,
      "inclination_deg": 5.3947,
      "raan_deg": 356.1002,
      "arg_perigee_deg": 7.7319,
      "mean_anomaly_deg": 75.8089,
      "mean_motion_rev_day": 1.00271357
    },
    {
      "epoch": "2026-03-30T19:19:38.651808Z",
      "apogee_km": 35805.44296058399,
      "perigee_km": 35768.045240940475,
      "latitude_deg": -5.261223363801636,
      "longitude_deg": 135.8954367873559,
      "height_km": 35793.71609876534,
      "semi_major_axis_km": 42164.881100762235,
      "eccentricity": 0.00044347,
      "inclination_deg": 5.3946,
      "raan_deg": 356.1048,
      "arg_perigee_deg": 8.5644,
      "mean_anomaly_deg": 249.3937,
      "mean_motion_rev_day": 1.00271253
    },
    {
      "epoch": "2026-03-31T20:39:26.669376Z",
      "apogee_km": 35805.55228990971,
      "perigee_km": 35768.076081295956,
      "latitude_deg": -5.313031872972719,
      "longitude_deg": 135.9765003339261,
      "height_km": 35787.677523849015,
      "semi_major_axis_km": 42164.95118560284,
      "eccentricity": 0.0004444,
      "inclination_deg": 5.3946,
      "raan_deg": 356.115,
      "arg_perigee_deg": 10.4363,
      "mean_anomaly_deg": 268.4987,
      "mean_motion_rev_day": 1.00271003
    },
    {
      "epoch": "2026-04-01T16:43:38.631360Z",
      "apogee_km": 35804.97686342474,
      "perigee_km": 35767.43373304239,
      "latitude_deg": -3.5193830809487885,
      "longitude_deg": 135.84550242805267,
      "height_km": 35802.389443505825,
      "semi_major_axis_km": 42164.34229823357,
      "eccentricity": 0.0004452,
      "inclination_deg": 5.3945,
      "raan_deg": 356.1232,
      "arg_perigee_deg": 9.596,
      "mean_anomaly_deg": 211.2137,
      "mean_motion_rev_day": 1.00273175
    },
    {
      "epoch": "2026-04-02T17:46:51.603456Z",
      "apogee_km": 35804.88865334526,
      "perigee_km": 35767.597632259356,
      "latitude_deg": -4.548169856205244,
      "longitude_deg": 135.847504103255,
      "height_km": 35799.54622012551,
      "semi_major_axis_km": 42164.38014280231,
      "eccentricity": 0.00044221,
      "inclination_deg": 5.3945,
      "raan_deg": 356.1315,
      "arg_perigee_deg": 11.8433,
      "mean_anomaly_deg": 225.7959,
      "mean_motion_rev_day": 1.0027304
    },
    {
      "epoch": "2026-04-03T17:34:51.698784Z",
      "apogee_km": 35804.99542326671,
      "perigee_km": 35767.65457571996,
      "latitude_deg": -4.445545050663016,
      "longitude_deg": 135.84669188621493,
      "height_km": 35800.65356629694,
      "semi_major_axis_km": 42164.46199949333,
      "eccentricity": 0.0004428,
      "inclination_deg": 5.3945,
      "raan_deg": 356.1395,
      "arg_perigee_deg": 14.383,
      "mean_anomaly_deg": 221.229,
      "mean_motion_rev_day": 1.00272748
    },
    {
      "epoch": "2026-04-04T04:19:14.409696Z",
      "apogee_km": 35805.09726633763,
      "perigee_km": 35767.60038909104,
      "latitude_deg": 3.2596643839291914,
      "longitude_deg": 135.89324903987088,
      "height_km": 35768.09037728054,
      "semi_major_axis_km": 42164.48582771434,
      "eccentricity": 0.00044465,
      "inclination_deg": 5.3944,
      "raan_deg": 356.1435,
      "arg_perigee_deg": 14.5304,
      "mean_anomaly_deg": 22.6146,
      "mean_motion_rev_day": 1.00272663
    },
    {
      "epoch": "2026-04-05T12:52:38.764992Z",
      "apogee_km": 35805.13601978928,
      "perigee_km": 35767.841408345186,
      "latitude_deg": 1.210308881621177,
      "longitude_deg": 136.07784481195998,
      "height_km": 35802.02630302613,
      "semi_major_axis_km": 42164.62571406723,
      "eccentricity": 0.00044225,
      "inclination_deg": 5.3944,
      "raan_deg": 356.1545,
      "arg_perigee_deg": 17.0666,
      "mean_anomaly_deg": 149.7577,
      "mean_motion_rev_day": 1.00272164
    },
    {
      "epoch": "2026-04-05T17:41:51.567360Z",
      "apogee_km": 35805.16336930687,
      "perigee_km": 35767.86451908163,
      "latitude_deg": -4.6357755843483135,
      "longitude_deg": 135.8508447754219,
      "height_km": 35800.69818702856,
      "semi_major_axis_km": 42164.650944194254,
      "eccentricity": 0.0004423,
      "inclination_deg": 5.3944,
      "raan_deg": 356.1559,
      "arg_perigee_deg": 17.3628,
      "mean_anomaly_deg": 221.9617,
      "mean_motion_rev_day": 1.00272074
    },
    {
      "epoch": "2026-04-05T23:39:36.527616Z",
      "apogee_km": 35805.190978255516,
      "perigee_km": 35767.90643327334,
      "latitude_deg": -2.762725341394727,
      "longitude_deg": 136.06559191248357,
      "height_km": 35774.11610456928,
      "semi_major_axis_km": 42164.68570576443,
      "eccentricity": 0.00044213,
      "inclination_deg": 5.3944,
      "raan_deg": 356.1581,
      "arg_perigee_deg": 17.7508,
      "mean_anomaly_deg": 311.2536,
      "mean_motion_rev_day": 1.0027195
    },
    {
      "epoch": "2026-04-07T13:30:43.549056Z",
      "apogee_km": 35805.18770464561,
      "perigee_km": 35768.316195854175,
      "latitude_deg": 0.14359960624924348,
      "longitude_deg": 136.0159740572925,
      "height_km": 35803.42218133442,
      "semi_major_axis_km": 42164.88895024989,
      "eccentricity": 0.00043723,
      "inclination_deg": 5.3944,
      "raan_deg": 356.1704,
      "arg_perigee_deg": 20.1499,
      "mean_anomaly_deg": 158.1731,
      "mean_motion_rev_day": 1.00271225
    },
    {
      "epoch": "2026-04-07T17:34:51.610656Z",
      "apogee_km": 35805.21927284755,
      "perigee_km": 35768.33340665793,
      "latitude_deg": -4.646474314406809,
      "longitude_deg": 135.84681365779207,
      "height_km": 35801.388889574446,
      "semi_major_axis_km": 42164.91333975274,
      "eccentricity": 0.0004374,
      "inclination_deg": 5.3944,
      "raan_deg": 356.1716,
      "arg_perigee_deg": 20.3757,
      "mean_anomaly_deg": 219.1466,
      "mean_motion_rev_day": 1.00271138
    },
    {
      "epoch": "2026-04-07T23:34:45.674976Z",
      "apogee_km": 35805.24321890593,
      "perigee_km": 35768.386834339464,
      "latitude_deg": -2.705626983153582,
      "longitude_deg": 136.05634053310033,
      "height_km": 35775.049249749754,
      "semi_major_axis_km": 42164.952026622705,
      "eccentricity": 0.00043705,
      "inclination_deg": 5.3944,
      "raan_deg": 356.1736,
      "arg_perigee_deg": 20.6455,
      "mean_anomaly_deg": 309.0956,
      "mean_motion_rev_day": 1.00271
    },
    {
      "epoch": "2026-04-09T13:48:38.937024Z",
      "apogee_km": 35804.15488102216,
      "perigee_km": 35768.30673551158,
      "latitude_deg": -0.46020190443972175,
      "longitude_deg": 135.99395786996138,
      "height_km": 35803.169344585745,
      "semi_major_axis_km": 42164.36780826687,
      "eccentricity": 0.0004251,
      "inclination_deg": 5.3943,
      "raan_deg": 356.1865,
      "arg_perigee_deg": 19.8655,
      "mean_anomaly_deg": 164.9197,
      "mean_motion_rev_day": 1.00273084
    },
    {
      "epoch": "2026-04-10T11:28:33.049056Z",
      "apogee_km": 35804.157394756745,
      "perigee_km": 35768.56212659139,
      "latitude_deg": 2.626661061009806,
      "longitude_deg": 136.14992438610847,
      "height_km": 35797.12605438095,
      "semi_major_axis_km": 42164.49676067407,
      "eccentricity": 0.0004221,
      "inclination_deg": 5.3943,
      "raan_deg": 356.1945,
      "arg_perigee_deg": 20.3387,
      "mean_anomaly_deg": 130.3068,
      "mean_motion_rev_day": 1.00272624
    }
  ]
}